HULIANWANG DIGUI-138    
1 67436U 26007B   26029.50415956  .00000077  00000+0  19218-3 0  9992
2 67436  50.0044 231.3437 0000230 254.9277 105.1594 13.85936433  2210
HULIANWANG DIGUI-139    
1 67437U 26007C   26029.28586699  .00000118  00000+0  22690-3 0  9995
2 67437  50.0013 232.1826 0000518 286.9560  73.1280 13.86146294  2188
HULIANWANG DIGUI-140    
1 67438U 26007D   26029.21784765  .00000108  00000+0  21887-3 0  9999
2 67438  50.0043 232.4940 0000422 288.5053  71.5798 13.85762899  2170
HULIANWANG DIGUI-141    
1 67439U 26007E   26029.57056951  .00000082  00000+0  19577-3 0  9992
2 67439  50.0188 231.0321 0001279 236.0876 123.9900 13.86092316  2225
HULIANWANG DIGUI-142    
1 67440U 26007F   26029.56822295 -.00000107  00000+0  32385-4 0  9997
2 67440  50.0450 231.0552 0003487 288.4312  71.6206 13.86227290  2223
HULIANWANG DIGUI-143    
1 67441U 26007G   26028.84560569  .00000089  00000+0  19914-3 0  9991
2 67441  50.0072 233.8713 0000364 238.4949 121.5913 13.86944964  2128
HULIANWANG DIGUI-144    
1 67442U 26007H   26029.56421353  .00000062  00000+0  17652-3 0  9997
2 67442  50.0341 231.0189 0003163 277.0387  83.0151 13.86675770  2223
HULIANWANG DIGUI-145    
1 67443U 26007J   26029.48954250  .00000093  00000+0  20162-3 0  9990
2 67443  50.0082 231.2743 0000501 299.8390  60.2458 13.87274363  2213
CZ-8A R/B               
1 67444U 26007K   26030.01910351  .00000011  00000+0  84445-4 0  9991
2 67444  50.0084 226.7174 0092175 139.2409 221.5443 14.13550287  2318
STARLINK-36542          
1 67445U 26008A   26030.16668981 -.01319802  00000+0 -80083-2 0  9994
2 67445  43.0008  67.3056 0001263 272.6390 278.1308 15.79099990  3607
STARLINK-36539          
1 67446U 26008B   26030.16668981 -.01340214  00000+0 -81774-2 0  9994
2 67446  43.0006  67.2996 0001124 267.4578 285.7450 15.79019618  3605
STARLINK-36440          
1 67447U 26008C   26030.16668981 -.01347205  00000+0 -82649-2 0  9994
2 67447  43.0008  67.2934 0001210 265.7107 290.0071 15.78913602  3608
